{
  "type": "FeatureCollection",
  "name": "tripura_landslide_inventory_with_lat_long",
  "features": [
    {
      "type": "Feature",
      "properties": {
        "landslide_id": "UNKNOWN_ID",
        "zone_name": "Landslide Zone (North Tripura)",
        "state": "Tripura",
        "district": "North Tripura",
        "hazard_type": "LANDSLIDE",
        "risk_level": "HIGH",
        "historical_event_count": 1
      },
      "geometry": {
        "type": "Polygon",
        "coordinates": [
          [
            [
              92.24722222222222,
              24.036800000000003
            ],
            [
              92.24720777640223,
              24.036505948579013
            ],
            [
              92.24716457806343,
              24.036214729033954
            ],
            [
              92.24709304322941,
              24.03592914596824
            ],
            [
              92.24699386081976,
              24.035651949702906
            ],
            [
              92.24686798601526,
              24.035385809789524
            ],
            [
              92.24671663105913,
              24.035133289300944
            ],
            [
              92.24654125358231,
              24.034896820147512
            ],
            [
              92.24634354256578,
              24.034678679656444
            ],
            [
              92.24612540207471,
              24.034480968639915
            ],
            [
              92.24588893292128,
              24.034305591163097
            ],
            [
              92.2456364124327,
              24.03415423620696
            ],
            [
              92.24537027251931,
              24.03402836140247
            ],
            [
              92.24509307625398,
              24.033929178992807
            ],
            [
              92.24480749318826,
              24.033857644158793
            ],
            [
              92.24451627364321,
              24.033814445819985
            ],
            [
              92.24422222222222,
              24.033800000000003
            ],
            [
              92.24392817080123,
              24.033814445819985
            ],
            [
              92.24363695125618,
              24.033857644158793
            ],
            [
              92.24335136819046,
              24.033929178992807
            ],
            [
              92.24307417192513,
              24.03402836140247
            ],
            [
              92.24280803201174,
              24.03415423620696
            ],
            [
              92.24255551152316,
              24.034305591163097
            ],
            [
              92.24231904236973,
              24.034480968639915
            ],
            [
              92.24210090187866,
              24.034678679656444
            ],
            [
              92.24190319086213,
              24.034896820147512
            ],
            [
              92.24172781338531,
              24.035133289300944
            ],
            [
              92.24157645842918,
              24.035385809789524
            ],
            [
              92.24145058362468,
              24.035651949702906
            ],
            [
              92.24135140121503,
              24.03592914596824
            ],
            [
              92.241279866381,
              24.036214729033954
            ],
            [
              92.2412366680422,
              24.036505948579013
            ],
            [
              92.24122222222222,
              24.036800000000003
            ],
            [
              92.2412366680422,
              24.037094051420993
            ],
            [
              92.241279866381,
              24.037385270966052
            ],
            [
              92.24135140121503,
              24.037670854031767
            ],
            [
              92.24145058362468,
              24.0379480502971
            ],
            [
              92.24157645842918,
              24.038214190210482
            ],
            [
              92.24172781338531,
              24.038466710699062
            ],
            [
              92.24190319086213,
              24.038703179852494
            ],
            [
              92.24210090187866,
              24.03892132034356
            ],
            [
              92.24231904236973,
              24.03911903136009
            ],
            [
              92.24255551152316,
              24.03929440883691
            ],
            [
              92.24280803201174,
              24.039445763793047
            ],
            [
              92.24307417192513,
              24.039571638597536
            ],
            [
              92.24335136819046,
              24.0396708210072
            ],
            [
              92.24363695125618,
              24.039742355841213
            ],
            [
              92.24392817080123,
              24.03978555418002
            ],
            [
              92.24422222222222,
              24.039800000000003
            ],
            [
              92.24451627364321,
              24.03978555418002
            ],
            [
              92.24480749318826,
              24.039742355841213
            ],
            [
              92.24509307625398,
              24.0396708210072
            ],
            [
              92.24537027251931,
              24.039571638597536
            ],
            [
              92.2456364124327,
              24.039445763793047
            ],
            [
              92.24588893292128,
              24.03929440883691
            ],
            [
              92.24612540207471,
              24.03911903136009
            ],
            [
              92.24634354256578,
              24.03892132034356
            ],
            [
              92.24654125358231,
              24.038703179852494
            ],
            [
              92.24671663105913,
              24.038466710699062
            ],
            [
              92.24686798601526,
              24.038214190210482
            ],
            [
              92.24699386081976,
              24.0379480502971
            ],
            [
              92.24709304322941,
              24.037670854031767
            ],
            [
              92.24716457806343,
              24.037385270966052
            ],
            [
              92.24720777640223,
              24.037094051420993
            ],
            [
              92.24722222222222,
              24.036800000000003
            ]
          ]
        ]
      }
    },
    {
      "type": "Feature",
      "properties": {
        "landslide_id": "UNKNOWN_ID",
        "zone_name": "Landslide Zone (North Tripura)",
        "state": "Tripura",
        "district": "North Tripura",
        "hazard_type": "LANDSLIDE",
        "risk_level": "HIGH",
        "historical_event_count": 1
      },
      "geometry": {
        "type": "Polygon",
        "coordinates": [
          [
            [
              92.03458333333332,
              22.2526
            ],
            [
              92.03456888751333,
              22.25230594857901
            ],
            [
              92.03452568917453,
              22.252014729033952
            ],
            [
              92.03445415434051,
              22.251729145968238
            ],
            [
              92.03435497193085,
              22.251451949702904
            ],
            [
              92.03422909712636,
              22.251185809789522
            ],
            [
              92.03407774217023,
              22.250933289300942
            ],
            [
              92.0339023646934,
              22.25069682014751
            ],
            [
              92.03370465367688,
              22.250478679656442
            ],
            [
              92.0334865131858,
              22.250280968639913
            ],
            [
              92.03325004403237,
              22.250105591163095
            ],
            [
              92.0329975235438,
              22.249954236206957
            ],
            [
              92.0327313836304,
              22.249828361402468
            ],
            [
              92.03245418736508,
              22.249729178992805
            ],
            [
              92.03216860429936,
              22.24965764415879
            ],
            [
              92.03187738475431,
              22.249614445819983
            ],
            [
              92.03158333333332,
              22.2496
            ],
            [
              92.03128928191232,
              22.249614445819983
            ],
            [
              92.03099806236727,
              22.24965764415879
            ],
            [
              92.03071247930156,
              22.249729178992805
            ],
            [
              92.03043528303623,
              22.249828361402468
            ],
            [
              92.03016914312283,
              22.249954236206957
            ],
            [
              92.02991662263426,
              22.250105591163095
            ],
            [
              92.02968015348083,
              22.250280968639913
            ],
            [
              92.02946201298975,
              22.250478679656442
            ],
            [
              92.02926430197323,
              22.25069682014751
            ],
            [
              92.0290889244964,
              22.250933289300942
            ],
            [
              92.02893756954028,
              22.251185809789522
            ],
            [
              92.02881169473578,
              22.251451949702904
            ],
            [
              92.02871251232612,
              22.251729145968238
            ],
            [
              92.0286409774921,
              22.252014729033952
            ],
            [
              92.0285977791533,
              22.25230594857901
            ],
            [
              92.02858333333332,
              22.2526
            ],
            [
              92.0285977791533,
              22.25289405142099
            ],
            [
              92.0286409774921,
              22.25318527096605
            ],
            [
              92.02871251232612,
              22.253470854031765
            ],
            [
              92.02881169473578,
              22.253748050297098
            ],
            [
              92.02893756954028,
              22.25401419021048
            ],
            [
              92.0290889244964,
              22.25426671069906
            ],
            [
              92.02926430197323,
              22.25450317985249
            ],
            [
              92.02946201298975,
              22.25472132034356
            ],
            [
              92.02968015348083,
              22.25491903136009
            ],
            [
              92.02991662263426,
              22.255094408836907
            ],
            [
              92.03016914312283,
              22.255245763793045
            ],
            [
              92.03043528303623,
              22.255371638597534
            ],
            [
              92.03071247930156,
              22.255470821007197
            ],
            [
              92.03099806236727,
              22.25554235584121
            ],
            [
              92.03128928191232,
              22.25558555418002
            ],
            [
              92.03158333333332,
              22.2556
            ],
            [
              92.03187738475431,
              22.25558555418002
            ],
            [
              92.03216860429936,
              22.25554235584121
            ],
            [
              92.03245418736508,
              22.255470821007197
            ],
            [
              92.0327313836304,
              22.255371638597534
            ],
            [
              92.0329975235438,
              22.255245763793045
            ],
            [
              92.03325004403237,
              22.255094408836907
            ],
            [
              92.0334865131858,
              22.25491903136009
            ],
            [
              92.03370465367688,
              22.25472132034356
            ],
            [
              92.0339023646934,
              22.25450317985249
            ],
            [
              92.03407774217023,
              22.25426671069906
            ],
            [
              92.03422909712636,
              22.25401419021048
            ],
            [
              92.03435497193085,
              22.253748050297098
            ],
            [
              92.03445415434051,
              22.253470854031765
            ],
            [
              92.03452568917453,
              22.25318527096605
            ],
            [
              92.03456888751333,
              22.25289405142099
            ],
            [
              92.03458333333332,
              22.2526
            ]
          ]
        ]
      }
    },
    {
      "type": "Feature",
      "properties": {
        "landslide_id": "UNKNOWN_ID",
        "zone_name": "Landslide Zone (North Tripura)",
        "state": "Tripura",
        "district": "North Tripura",
        "hazard_type": "LANDSLIDE",
        "risk_level": "HIGH",
        "historical_event_count": 1
      },
      "geometry": {
        "type": "Polygon",
        "coordinates": [
          [
            [
              92.261,
              24.0314
            ],
            [
              92.26098555418001,
              24.03110594857901
            ],
            [
              92.26094235584121,
              24.030814729033953
            ],
            [
              92.26087082100719,
              24.030529145968238
            ],
            [
              92.26077163859753,
              24.030251949702905
            ],
            [
              92.26064576379304,
              24.029985809789522
            ],
            [
              92.2604944088369,
              24.029733289300943
            ],
            [
              92.26031903136008,
              24.02949682014751
            ],
            [
              92.26012132034356,
              24.029278679656443
            ],
            [
              92.25990317985249,
              24.029080968639914
            ],
            [
              92.25966671069905,
              24.028905591163095
            ],
            [
              92.25941419021048,
              24.028754236206957
            ],
            [
              92.25914805029709,
              24.02862836140247
            ],
            [
              92.25887085403176,
              24.028529178992805
            ],
            [
              92.25858527096604,
              24.02845764415879
            ],
            [
              92.25829405142099,
              24.028414445819983
            ],
            [
              92.258,
              24.0284
            ],
            [
              92.257705948579,
              24.028414445819983
            ],
            [
              92.25741472903395,
              24.02845764415879
            ],
            [
              92.25712914596824,
              24.028529178992805
            ],
            [
              92.2568519497029,
              24.02862836140247
            ],
            [
              92.25658580978951,
              24.028754236206957
            ],
            [
              92.25633328930094,
              24.028905591163095
            ],
            [
              92.2560968201475,
              24.029080968639914
            ],
            [
              92.25587867965643,
              24.029278679656443
            ],
            [
              92.25568096863991,
              24.02949682014751
            ],
            [
              92.25550559116309,
              24.029733289300943
            ],
            [
              92.25535423620695,
              24.029985809789522
            ],
            [
              92.25522836140246,
              24.030251949702905
            ],
            [
              92.2551291789928,
              24.030529145968238
            ],
            [
              92.25505764415878,
              24.030814729033953
            ],
            [
              92.25501444581998,
              24.03110594857901
            ],
            [
              92.255,
              24.0314
            ],
            [
              92.25501444581998,
              24.031694051420992
            ],
            [
              92.25505764415878,
              24.03198527096605
            ],
            [
              92.2551291789928,
              24.032270854031765
            ],
            [
              92.25522836140246,
              24.0325480502971
            ],
            [
              92.25535423620695,
              24.03281419021048
            ],
            [
              92.25550559116309,
              24.03306671069906
            ],
            [
              92.25568096863991,
              24.033303179852492
            ],
            [
              92.25587867965643,
              24.03352132034356
            ],
            [
              92.2560968201475,
              24.03371903136009
            ],
            [
              92.25633328930094,
              24.033894408836908
            ],
            [
              92.25658580978951,
              24.034045763793046
            ],
            [
              92.2568519497029,
              24.034171638597535
            ],
            [
              92.25712914596824,
              24.034270821007198
            ],
            [
              92.25741472903395,
              24.03434235584121
            ],
            [
              92.257705948579,
              24.03438555418002
            ],
            [
              92.258,
              24.0344
            ],
            [
              92.25829405142099,
              24.03438555418002
            ],
            [
              92.25858527096604,
              24.03434235584121
            ],
            [
              92.25887085403176,
              24.034270821007198
            ],
            [
              92.25914805029709,
              24.034171638597535
            ],
            [
              92.25941419021048,
              24.034045763793046
            ],
            [
              92.25966671069905,
              24.033894408836908
            ],
            [
              92.25990317985249,
              24.03371903136009
            ],
            [
              92.26012132034356,
              24.03352132034356
            ],
            [
              92.26031903136008,
              24.033303179852492
            ],
            [
              92.2604944088369,
              24.03306671069906
            ],
            [
              92.26064576379304,
              24.03281419021048
            ],
            [
              92.26077163859753,
              24.0325480502971
            ],
            [
              92.26087082100719,
              24.032270854031765
            ],
            [
              92.26094235584121,
              24.03198527096605
            ],
            [
              92.26098555418001,
              24.031694051420992
            ],
            [
              92.261,
              24.0314
            ]
          ]
        ]
      }
    },
    {
      "type": "Feature",
      "properties": {
        "landslide_id": "UNKNOWN_ID",
        "zone_name": "Landslide Zone (North Tripura)",
        "state": "Tripura",
        "district": "North Tripura",
        "hazard_type": "LANDSLIDE",
        "risk_level": "HIGH",
        "historical_event_count": 1
      },
      "geometry": {
        "type": "Polygon",
        "coordinates": [
          [
            [
              92.27577777777778,
              23.892416666666666
            ],
            [
              92.27576333195779,
              23.892122615245675
            ],
            [
              92.27572013361899,
              23.891831395700617
            ],
            [
              92.27564859878497,
              23.891545812634902
            ],
            [
              92.27554941637531,
              23.89126861636957
            ],
            [
              92.27542354157082,
              23.891002476456187
            ],
            [
              92.27527218661469,
              23.890749955967607
            ],
            [
              92.27509680913786,
              23.890513486814175
            ],
            [
              92.27489909812134,
              23.890295346323107
            ],
            [
              92.27468095763027,
              23.890097635306578
            ],
            [
              92.27444448847683,
              23.88992225782976
            ],
            [
              92.27419196798826,
              23.88977090287362
            ],
            [
              92.27392582807487,
              23.889645028069133
            ],
            [
              92.27364863180954,
              23.88954584565947
            ],
            [
              92.27336304874382,
              23.889474310825456
            ],
            [
              92.27307182919877,
              23.889431112486648
            ],
            [
              92.27277777777778,
              23.889416666666666
            ],
            [
              92.27248372635678,
              23.889431112486648
            ],
            [
              92.27219250681173,
              23.889474310825456
            ],
            [
              92.27190692374602,
              23.88954584565947
            ],
            [
              92.27162972748069,
              23.889645028069133
            ],
            [
              92.2713635875673,
              23.88977090287362
            ],
            [
              92.27111106707872,
              23.88992225782976
            ],
            [
              92.27087459792529,
              23.890097635306578
            ],
            [
              92.27065645743421,
              23.890295346323107
            ],
            [
              92.27045874641769,
              23.890513486814175
            ],
            [
              92.27028336894087,
              23.890749955967607
            ],
            [
              92.27013201398474,
              23.891002476456187
            ],
            [
              92.27000613918024,
              23.89126861636957
            ],
            [
              92.26990695677058,
              23.891545812634902
            ],
            [
              92.26983542193656,
              23.891831395700617
            ],
            [
              92.26979222359776,
              23.892122615245675
            ],
            [
              92.26977777777778,
              23.892416666666666
            ],
            [
              92.26979222359776,
              23.892710718087656
            ],
            [
              92.26983542193656,
              23.893001937632715
            ],
            [
              92.26990695677058,
              23.89328752069843
            ],
            [
              92.27000613918024,
              23.893564716963763
            ],
            [
              92.27013201398474,
              23.893830856877145
            ],
            [
              92.27028336894087,
              23.894083377365725
            ],
            [
              92.27045874641769,
              23.894319846519156
            ],
            [
              92.27065645743421,
              23.894537987010224
            ],
            [
              92.27087459792529,
              23.894735698026754
            ],
            [
              92.27111106707872,
              23.894911075503572
            ],
            [
              92.2713635875673,
              23.89506243045971
            ],
            [
              92.27162972748069,
              23.8951883052642
            ],
            [
              92.27190692374602,
              23.895287487673862
            ],
            [
              92.27219250681173,
              23.895359022507876
            ],
            [
              92.27248372635678,
              23.895402220846684
            ],
            [
              92.27277777777778,
              23.895416666666666
            ],
            [
              92.27307182919877,
              23.895402220846684
            ],
            [
              92.27336304874382,
              23.895359022507876
            ],
            [
              92.27364863180954,
              23.895287487673862
            ],
            [
              92.27392582807487,
              23.8951883052642
            ],
            [
              92.27419196798826,
              23.89506243045971
            ],
            [
              92.27444448847683,
              23.894911075503572
            ],
            [
              92.27468095763027,
              23.894735698026754
            ],
            [
              92.27489909812134,
              23.894537987010224
            ],
            [
              92.27509680913786,
              23.894319846519156
            ],
            [
              92.27527218661469,
              23.894083377365725
            ],
            [
              92.27542354157082,
              23.893830856877145
            ],
            [
              92.27554941637531,
              23.893564716963763
            ],
            [
              92.27564859878497,
              23.89328752069843
            ],
            [
              92.27572013361899,
              23.893001937632715
            ],
            [
              92.27576333195779,
              23.892710718087656
            ],
            [
              92.27577777777778,
              23.892416666666666
            ]
          ]
        ]
      }
    },
    {
      "type": "Feature",
      "properties": {
        "landslide_id": "UNKNOWN_ID",
        "zone_name": "Landslide Zone (North Tripura)",
        "state": "Tripura",
        "district": "North Tripura",
        "hazard_type": "LANDSLIDE",
        "risk_level": "HIGH",
        "historical_event_count": 1
      },
      "geometry": {
        "type": "Polygon",
        "coordinates": [
          [
            [
              92.27661111111112,
              23.895444444444443
            ],
            [
              92.27659666529114,
              23.895150393023453
            ],
            [
              92.27655346695234,
              23.894859173478395
            ],
            [
              92.27648193211832,
              23.89457359041268
            ],
            [
              92.27638274970866,
              23.894296394147347
            ],
            [
              92.27625687490416,
              23.894030254233964
            ],
            [
              92.27610551994803,
              23.893777733745384
            ],
            [
              92.27593014247121,
              23.893541264591953
            ],
            [
              92.27573243145468,
              23.893323124100885
            ],
            [
              92.27551429096361,
              23.893125413084356
            ],
            [
              92.27527782181018,
              23.892950035607537
            ],
            [
              92.2750253013216,
              23.8927986806514
            ],
            [
              92.27475916140821,
              23.89267280584691
            ],
            [
              92.27448196514288,
              23.892573623437247
            ],
            [
              92.27419638207716,
              23.892502088603234
            ],
            [
              92.27390516253212,
              23.892458890264425
            ],
            [
              92.27361111111112,
              23.892444444444443
            ],
            [
              92.27331705969013,
              23.892458890264425
            ],
            [
              92.27302584014508,
              23.892502088603234
            ],
            [
              92.27274025707936,
              23.892573623437247
            ],
            [
              92.27246306081403,
              23.89267280584691
            ],
            [
              92.27219692090064,
              23.8927986806514
            ],
            [
              92.27194440041207,
              23.892950035607537
            ],
            [
              92.27170793125863,
              23.893125413084356
            ],
            [
              92.27148979076756,
              23.893323124100885
            ],
            [
              92.27129207975103,
              23.893541264591953
            ],
            [
              92.27111670227421,
              23.893777733745384
            ],
            [
              92.27096534731808,
              23.894030254233964
            ],
            [
              92.27083947251359,
              23.894296394147347
            ],
            [
              92.27074029010393,
              23.89457359041268
            ],
            [
              92.27066875526991,
              23.894859173478395
            ],
            [
              92.27062555693111,
              23.895150393023453
            ],
            [
              92.27061111111112,
              23.895444444444443
            ],
            [
              92.27062555693111,
              23.895738495865434
            ],
            [
              92.27066875526991,
              23.896029715410492
            ],
            [
              92.27074029010393,
              23.896315298476207
            ],
            [
              92.27083947251359,
              23.89659249474154
            ],
            [
              92.27096534731808,
              23.896858634654922
            ],
            [
              92.27111670227421,
              23.897111155143502
            ],
            [
              92.27129207975103,
              23.897347624296934
            ],
            [
              92.27148979076756,
              23.897565764788002
            ],
            [
              92.27170793125863,
              23.89776347580453
            ],
            [
              92.27194440041207,
              23.89793885328135
            ],
            [
              92.27219692090064,
              23.898090208237488
            ],
            [
              92.27246306081403,
              23.898216083041977
            ],
            [
              92.27274025707936,
              23.89831526545164
            ],
            [
              92.27302584014508,
              23.898386800285653
            ],
            [
              92.27331705969013,
              23.89842999862446
            ],
            [
              92.27361111111112,
              23.898444444444443
            ],
            [
              92.27390516253212,
              23.89842999862446
            ],
            [
              92.27419638207716,
              23.898386800285653
            ],
            [
              92.27448196514288,
              23.89831526545164
            ],
            [
              92.27475916140821,
              23.898216083041977
            ],
            [
              92.2750253013216,
              23.898090208237488
            ],
            [
              92.27527782181018,
              23.89793885328135
            ],
            [
              92.27551429096361,
              23.89776347580453
            ],
            [
              92.27573243145468,
              23.897565764788002
            ],
            [
              92.27593014247121,
              23.897347624296934
            ],
            [
              92.27610551994803,
              23.897111155143502
            ],
            [
              92.27625687490416,
              23.896858634654922
            ],
            [
              92.27638274970866,
              23.89659249474154
            ],
            [
              92.27648193211832,
              23.896315298476207
            ],
            [
              92.27655346695234,
              23.896029715410492
            ],
            [
              92.27659666529114,
              23.895738495865434
            ],
            [
              92.27661111111112,
              23.895444444444443
            ]
          ]
        ]
      }
    },
    {
      "type": "Feature",
      "properties": {
        "landslide_id": "UNKNOWN_ID",
        "zone_name": "Landslide Zone (North Tripura)",
        "state": "Tripura",
        "district": "North Tripura",
        "hazard_type": "LANDSLIDE",
        "risk_level": "HIGH",
        "historical_event_count": 1
      },
      "geometry": {
        "type": "Polygon",
        "coordinates": [
          [
            [
              92.27488888888888,
              23.91369444444444
            ],
            [
              92.2748744430689,
              23.91340039302345
            ],
            [
              92.2748312447301,
              23.913109173478393
            ],
            [
              92.27475970989607,
              23.91282359041268
            ],
            [
              92.27466052748642,
              23.912546394147345
            ],
            [
              92.27453465268192,
              23.912280254233963
            ],
            [
              92.27438329772579,
              23.912027733745383
            ],
            [
              92.27420792024897,
              23.91179126459195
            ],
            [
              92.27401020923244,
              23.911573124100883
            ],
            [
              92.27379206874137,
              23.911375413084354
            ],
            [
              92.27355559958794,
              23.911200035607536
            ],
            [
              92.27330307909936,
              23.911048680651398
            ],
            [
              92.27303693918597,
              23.91092280584691
            ],
            [
              92.27275974292064,
              23.910823623437246
            ],
            [
              92.27247415985492,
              23.910752088603232
            ],
            [
              92.27218294030988,
              23.910708890264424
            ],
            [
              92.27188888888888,
              23.91069444444444
            ],
            [
              92.27159483746789,
              23.910708890264424
            ],
            [
              92.27130361792284,
              23.910752088603232
            ],
            [
              92.27101803485712,
              23.910823623437246
            ],
            [
              92.27074083859179,
              23.91092280584691
            ],
            [
              92.2704746986784,
              23.911048680651398
            ],
            [
              92.27022217818983,
              23.911200035607536
            ],
            [
              92.26998570903639,
              23.911375413084354
            ],
            [
              92.26976756854532,
              23.911573124100883
            ],
            [
              92.2695698575288,
              23.91179126459195
            ],
            [
              92.26939448005197,
              23.912027733745383
            ],
            [
              92.26924312509584,
              23.912280254233963
            ],
            [
              92.26911725029134,
              23.912546394147345
            ],
            [
              92.26901806788169,
              23.91282359041268
            ],
            [
              92.26894653304767,
              23.913109173478393
            ],
            [
              92.26890333470887,
              23.91340039302345
            ],
            [
              92.26888888888888,
              23.91369444444444
            ],
            [
              92.26890333470887,
              23.913988495865432
            ],
            [
              92.26894653304767,
              23.91427971541049
            ],
            [
              92.26901806788169,
              23.914565298476205
            ],
            [
              92.26911725029134,
              23.91484249474154
            ],
            [
              92.26924312509584,
              23.91510863465492
            ],
            [
              92.26939448005197,
              23.9153611551435
            ],
            [
              92.2695698575288,
              23.915597624296932
            ],
            [
              92.26976756854532,
              23.915815764788
            ],
            [
              92.26998570903639,
              23.91601347580453
            ],
            [
              92.27022217818983,
              23.916188853281348
            ],
            [
              92.2704746986784,
              23.916340208237486
            ],
            [
              92.27074083859179,
              23.916466083041975
            ],
            [
              92.27101803485712,
              23.916565265451638
            ],
            [
              92.27130361792284,
              23.91663680028565
            ],
            [
              92.27159483746789,
              23.91667999862446
            ],
            [
              92.27188888888888,
              23.916694444444442
            ],
            [
              92.27218294030988,
              23.91667999862446
            ],
            [
              92.27247415985492,
              23.91663680028565
            ],
            [
              92.27275974292064,
              23.916565265451638
            ],
            [
              92.27303693918597,
              23.916466083041975
            ],
            [
              92.27330307909936,
              23.916340208237486
            ],
            [
              92.27355559958794,
              23.916188853281348
            ],
            [
              92.27379206874137,
              23.91601347580453
            ],
            [
              92.27401020923244,
              23.915815764788
            ],
            [
              92.27420792024897,
              23.915597624296932
            ],
            [
              92.27438329772579,
              23.9153611551435
            ],
            [
              92.27453465268192,
              23.91510863465492
            ],
            [
              92.27466052748642,
              23.91484249474154
            ],
            [
              92.27475970989607,
              23.914565298476205
            ],
            [
              92.2748312447301,
              23.91427971541049
            ],
            [
              92.2748744430689,
              23.913988495865432
            ],
            [
              92.27488888888888,
              23.91369444444444
            ]
          ]
        ]
      }
    },
    {
      "type": "Feature",
      "properties": {
        "landslide_id": "UNKNOWN_ID",
        "zone_name": "Landslide Zone (North Tripura)",
        "state": "Tripura",
        "district": "North Tripura",
        "hazard_type": "LANDSLIDE",
        "risk_level": "HIGH",
        "historical_event_count": 1
      },
      "geometry": {
        "type": "Polygon",
        "coordinates": [
          [
            [
              92.27719444444445,
              23.91797222222222
            ],
            [
              92.27717999862446,
              23.91767817080123
            ],
            [
              92.27713680028566,
              23.917386951256173
            ],
            [
              92.27706526545164,
              23.91710136819046
            ],
            [
              92.27696608304198,
              23.916824171925125
            ],
            [
              92.27684020823749,
              23.916558032011743
            ],
            [
              92.27668885328136,
              23.916305511523163
            ],
            [
              92.27651347580453,
              23.91606904236973
            ],
            [
              92.27631576478801,
              23.915850901878663
            ],
            [
              92.27609762429694,
              23.915653190862134
            ],
            [
              92.2758611551435,
              23.915477813385316
            ],
            [
              92.27560863465493,
              23.915326458429178
            ],
            [
              92.27534249474154,
              23.91520058362469
            ],
            [
              92.2750652984762,
              23.915101401215026
            ],
            [
              92.27477971541049,
              23.915029866381012
            ],
            [
              92.27448849586544,
              23.914986668042204
            ],
            [
              92.27419444444445,
              23.91497222222222
            ],
            [
              92.27390039302345,
              23.914986668042204
            ],
            [
              92.2736091734784,
              23.915029866381012
            ],
            [
              92.27332359041269,
              23.915101401215026
            ],
            [
              92.27304639414736,
              23.91520058362469
            ],
            [
              92.27278025423396,
              23.915326458429178
            ],
            [
              92.27252773374539,
              23.915477813385316
            ],
            [
              92.27229126459196,
              23.915653190862134
            ],
            [
              92.27207312410088,
              23.915850901878663
            ],
            [
              92.27187541308436,
              23.91606904236973
            ],
            [
              92.27170003560754,
              23.916305511523163
            ],
            [
              92.2715486806514,
              23.916558032011743
            ],
            [
              92.27142280584691,
              23.916824171925125
            ],
            [
              92.27132362343725,
              23.91710136819046
            ],
            [
              92.27125208860323,
              23.917386951256173
            ],
            [
              92.27120889026443,
              23.91767817080123
            ],
            [
              92.27119444444445,
              23.91797222222222
            ],
            [
              92.27120889026443,
              23.918266273643212
            ],
            [
              92.27125208860323,
              23.91855749318827
            ],
            [
              92.27132362343725,
              23.918843076253985
            ],
            [
              92.27142280584691,
              23.91912027251932
            ],
            [
              92.2715486806514,
              23.9193864124327
            ],
            [
              92.27170003560754,
              23.91963893292128
            ],
            [
              92.27187541308436,
              23.919875402074712
            ],
            [
              92.27207312410088,
              23.92009354256578
            ],
            [
              92.27229126459196,
              23.92029125358231
            ],
            [
              92.27252773374539,
              23.920466631059128
            ],
            [
              92.27278025423396,
              23.920617986015266
            ],
            [
              92.27304639414736,
              23.920743860819755
            ],
            [
              92.27332359041269,
              23.920843043229418
            ],
            [
              92.2736091734784,
              23.92091457806343
            ],
            [
              92.27390039302345,
              23.92095777640224
            ],
            [
              92.27419444444445,
              23.920972222222222
            ],
            [
              92.27448849586544,
              23.92095777640224
            ],
            [
              92.27477971541049,
              23.92091457806343
            ],
            [
              92.2750652984762,
              23.920843043229418
            ],
            [
              92.27534249474154,
              23.920743860819755
            ],
            [
              92.27560863465493,
              23.920617986015266
            ],
            [
              92.2758611551435,
              23.920466631059128
            ],
            [
              92.27609762429694,
              23.92029125358231
            ],
            [
              92.27631576478801,
              23.92009354256578
            ],
            [
              92.27651347580453,
              23.919875402074712
            ],
            [
              92.27668885328136,
              23.91963893292128
            ],
            [
              92.27684020823749,
              23.9193864124327
            ],
            [
              92.27696608304198,
              23.91912027251932
            ],
            [
              92.27706526545164,
              23.918843076253985
            ],
            [
              92.27713680028566,
              23.91855749318827
            ],
            [
              92.27717999862446,
              23.918266273643212
            ],
            [
              92.27719444444445,
              23.91797222222222
            ]
          ]
        ]
      }
    },
    {
      "type": "Feature",
      "properties": {
        "landslide_id": "UNKNOWN_ID",
        "zone_name": "Landslide Zone (North Tripura)",
        "state": "Tripura",
        "district": "North Tripura",
        "hazard_type": "LANDSLIDE",
        "risk_level": "HIGH",
        "historical_event_count": 1
      },
      "geometry": {
        "type": "Polygon",
        "coordinates": [
          [
            [
              92.27755555555557,
              23.926944444444445
            ],
            [
              92.27754110973558,
              23.926650393023454
            ],
            [
              92.27749791139678,
              23.926359173478396
            ],
            [
              92.27742637656276,
              23.92607359041268
            ],
            [
              92.2773271941531,
              23.925796394147348
            ],
            [
              92.2772013193486,
              23.925530254233966
            ],
            [
              92.27704996439248,
              23.925277733745386
            ],
            [
              92.27687458691565,
              23.925041264591954
            ],
            [
              92.27667687589913,
              23.924823124100886
            ],
            [
              92.27645873540806,
              23.924625413084357
            ],
            [
              92.27622226625462,
              23.92445003560754
            ],
            [
              92.27596974576605,
              23.9242986806514
            ],
            [
              92.27570360585266,
              23.92417280584691
            ],
            [
              92.27542640958733,
              23.92407362343725
            ],
            [
              92.2751408265216,
              23.924002088603235
            ],
            [
              92.27484960697656,
              23.923958890264426
            ],
            [
              92.27455555555557,
              23.923944444444444
            ],
            [
              92.27426150413457,
              23.923958890264426
            ],
            [
              92.27397028458952,
              23.924002088603235
            ],
            [
              92.2736847015238,
              23.92407362343725
            ],
            [
              92.27340750525848,
              23.92417280584691
            ],
            [
              92.27314136534508,
              23.9242986806514
            ],
            [
              92.27288884485651,
              23.92445003560754
            ],
            [
              92.27265237570307,
              23.924625413084357
            ],
            [
              92.272434235212,
              23.924823124100886
            ],
            [
              92.27223652419548,
              23.925041264591954
            ],
            [
              92.27206114671866,
              23.925277733745386
            ],
            [
              92.27190979176252,
              23.925530254233966
            ],
            [
              92.27178391695803,
              23.925796394147348
            ],
            [
              92.27168473454837,
              23.92607359041268
            ],
            [
              92.27161319971435,
              23.926359173478396
            ],
            [
              92.27157000137555,
              23.926650393023454
            ],
            [
              92.27155555555557,
              23.926944444444445
            ],
            [
              92.27157000137555,
              23.927238495865435
            ],
            [
              92.27161319971435,
              23.927529715410493
            ],
            [
              92.27168473454837,
              23.927815298476208
            ],
            [
              92.27178391695803,
              23.92809249474154
            ],
            [
              92.27190979176252,
              23.928358634654924
            ],
            [
              92.27206114671866,
              23.928611155143503
            ],
            [
              92.27223652419548,
              23.928847624296935
            ],
            [
              92.272434235212,
              23.929065764788003
            ],
            [
              92.27265237570307,
              23.929263475804532
            ],
            [
              92.27288884485651,
              23.92943885328135
            ],
            [
              92.27314136534508,
              23.92959020823749
            ],
            [
              92.27340750525848,
              23.929716083041978
            ],
            [
              92.2736847015238,
              23.92981526545164
            ],
            [
              92.27397028458952,
              23.929886800285654
            ],
            [
              92.27426150413457,
              23.929929998624463
            ],
            [
              92.27455555555557,
              23.929944444444445
            ],
            [
              92.27484960697656,
              23.929929998624463
            ],
            [
              92.2751408265216,
              23.929886800285654
            ],
            [
              92.27542640958733,
              23.92981526545164
            ],
            [
              92.27570360585266,
              23.929716083041978
            ],
            [
              92.27596974576605,
              23.92959020823749
            ],
            [
              92.27622226625462,
              23.92943885328135
            ],
            [
              92.27645873540806,
              23.929263475804532
            ],
            [
              92.27667687589913,
              23.929065764788003
            ],
            [
              92.27687458691565,
              23.928847624296935
            ],
            [
              92.27704996439248,
              23.928611155143503
            ],
            [
              92.2772013193486,
              23.928358634654924
            ],
            [
              92.2773271941531,
              23.92809249474154
            ],
            [
              92.27742637656276,
              23.927815298476208
            ],
            [
              92.27749791139678,
              23.927529715410493
            ],
            [
              92.27754110973558,
              23.927238495865435
            ],
            [
              92.27755555555557,
              23.926944444444445
            ]
          ]
        ]
      }
    },
    {
      "type": "Feature",
      "properties": {
        "landslide_id": "UNKNOWN_ID",
        "zone_name": "Landslide Zone (North Tripura)",
        "state": "Tripura",
        "district": "North Tripura",
        "hazard_type": "LANDSLIDE",
        "risk_level": "HIGH",
        "historical_event_count": 1
      },
      "geometry": {
        "type": "Polygon",
        "coordinates": [
          [
            [
              92.28261111111112,
              23.96597222222222
            ],
            [
              92.28259666529114,
              23.96567817080123
            ],
            [
              92.28255346695234,
              23.96538695125617
            ],
            [
              92.28248193211832,
              23.965101368190457
            ],
            [
              92.28238274970866,
              23.964824171925123
            ],
            [
              92.28225687490416,
              23.96455803201174
            ],
            [
              92.28210551994803,
              23.96430551152316
            ],
            [
              92.28193014247121,
              23.96406904236973
            ],
            [
              92.28173243145469,
              23.96385090187866
            ],
            [
              92.28151429096361,
              23.963653190862132
            ],
            [
              92.28127782181018,
              23.963477813385314
            ],
            [
              92.2810253013216,
              23.963326458429176
            ],
            [
              92.28075916140821,
              23.963200583624687
            ],
            [
              92.28048196514288,
              23.963101401215024
            ],
            [
              92.28019638207716,
              23.96302986638101
            ],
            [
              92.27990516253212,
              23.962986668042202
            ],
            [
              92.27961111111112,
              23.96297222222222
            ],
            [
              92.27931705969013,
              23.962986668042202
            ],
            [
              92.27902584014508,
              23.96302986638101
            ],
            [
              92.27874025707936,
              23.963101401215024
            ],
            [
              92.27846306081403,
              23.963200583624687
            ],
            [
              92.27819692090064,
              23.963326458429176
            ],
            [
              92.27794440041207,
              23.963477813385314
            ],
            [
              92.27770793125863,
              23.963653190862132
            ],
            [
              92.27748979076756,
              23.96385090187866
            ],
            [
              92.27729207975104,
              23.96406904236973
            ],
            [
              92.27711670227421,
              23.96430551152316
            ],
            [
              92.27696534731808,
              23.96455803201174
            ],
            [
              92.27683947251359,
              23.964824171925123
            ],
            [
              92.27674029010393,
              23.965101368190457
            ],
            [
              92.27666875526991,
              23.96538695125617
            ],
            [
              92.27662555693111,
              23.96567817080123
            ],
            [
              92.27661111111112,
              23.96597222222222
            ],
            [
              92.27662555693111,
              23.96626627364321
            ],
            [
              92.27666875526991,
              23.96655749318827
            ],
            [
              92.27674029010393,
              23.966843076253983
            ],
            [
              92.27683947251359,
              23.967120272519317
            ],
            [
              92.27696534731808,
              23.9673864124327
            ],
            [
              92.27711670227421,
              23.96763893292128
            ],
            [
              92.27729207975104,
              23.96787540207471
            ],
            [
              92.27748979076756,
              23.96809354256578
            ],
            [
              92.27770793125863,
              23.968291253582308
            ],
            [
              92.27794440041207,
              23.968466631059126
            ],
            [
              92.27819692090064,
              23.968617986015264
            ],
            [
              92.27846306081403,
              23.968743860819753
            ],
            [
              92.27874025707936,
              23.968843043229416
            ],
            [
              92.27902584014508,
              23.96891457806343
            ],
            [
              92.27931705969013,
              23.968957776402238
            ],
            [
              92.27961111111112,
              23.96897222222222
            ],
            [
              92.27990516253212,
              23.968957776402238
            ],
            [
              92.28019638207716,
              23.96891457806343
            ],
            [
              92.28048196514288,
              23.968843043229416
            ],
            [
              92.28075916140821,
              23.968743860819753
            ],
            [
              92.2810253013216,
              23.968617986015264
            ],
            [
              92.28127782181018,
              23.968466631059126
            ],
            [
              92.28151429096361,
              23.968291253582308
            ],
            [
              92.28173243145469,
              23.96809354256578
            ],
            [
              92.28193014247121,
              23.96787540207471
            ],
            [
              92.28210551994803,
              23.96763893292128
            ],
            [
              92.28225687490416,
              23.9673864124327
            ],
            [
              92.28238274970866,
              23.967120272519317
            ],
            [
              92.28248193211832,
              23.966843076253983
            ],
            [
              92.28255346695234,
              23.96655749318827
            ],
            [
              92.28259666529114,
              23.96626627364321
            ],
            [
              92.28261111111112,
              23.96597222222222
            ]
          ]
        ]
      }
    }
  ]
}